XCUBE-1                 
1 62400U 24247Z   26068.48297321  .00009773  00000+0  36224-3 0  9994
2 62400  44.9938 117.7807 0005235 331.1499  28.9094 15.27910558 67702
STARLINK-32827          
1 63043U 25034Q   26068.83993514  .00019052  00000+0  65381-3 0  9996
2 63043  53.1572 270.6511 0000808  87.7595 272.3499 15.30196539 58922
